{"type": "FeatureCollection", "features": [ {"type": "Feature", "properties": {"norad_id": 30843, "name": "FENGYUN 1C DEB", "group": "fengyun-1c-debris", "lat": -69.39779987055088, "lon": -154.3604387748514, "alt_km": 756.2727023640427, "timestamp": "2025-12-04T21:36:16.151924+00:00", "meta": {"OBJECT_NAME": "FENGYUN 1C DEB", "OBJECT_ID": "1999-025AWD", "EPOCH": "2025-12-02T22:10:08.396256", "MEAN_MOTION": 14.52444125, "ECCENTRICITY": 0.01487231, "INCLINATION": 98.8437, "RA_OF_ASC_NODE": 48.0238, "ARG_OF_PERICENTER": 149.1538, "MEAN_ANOMALY": 211.85, "EPHEMERIS_TYPE": 0, "CLASSIFICATION_TYPE": "U", "NORAD_CAT_ID": 30843, "ELEMENT_SET_NO": 999, "REV_AT_EPOCH": 99182, "BSTAR": 0.00029628051, "MEAN_MOTION_DOT": 1.339e-05, "MEAN_MOTION_DDOT": 0}, "tle": {"line1": "1 30843U 99025AWD 25336.92370829  .00001339  00000+0  29628-3 0  9997", "line2": "2 30843  98.8437  48.0238 0148723 149.1538 211.8500 14.52444125991828"}}, "geometry": {"type": "Point", "coordinates": [-154.3604387748514, -69.39779987055088]}}, {"type": "Feature", "properties": {"norad_id": 30845, "name": "FENGYUN 1C DEB", "group": "fengyun-1c-debris", "lat": 32.68336604821297, "lon": 165.83091164795226, "alt_km": 1087.9675241138139, "timestamp": "2025-12-04T21:36:16.151935+00:00", "meta": {"OBJECT_NAME": "FENGYUN 1C DEB", "OBJECT_ID": "1999-025AWF", "EPOCH": "2025-12-02T12:04:36.073920", "MEAN_MOTION": 13.76844808, "ECCENTRICITY": 0.01921512, "INCLINATION": 98.3793, "RA_OF_ASC_NODE": 338.291, "ARG_OF_PERICENTER": 298.3652, "MEAN_ANOMALY": 215.1904, "EPHEMERIS_TYPE": 0, "CLASSIFICATION_TYPE": "U", "NORAD_CAT_ID": 30845, "ELEMENT_SET_NO": 999, "REV_AT_EPOCH": 94102, "BSTAR": 0.00050675544, "MEAN_MOTION_DOT": 5.33e-06, "MEAN_MOTION_DDOT": 0}, "tle": {"line1": "1 30845U 99025AWF 25336.50319530  .00000533  00000+0  50676-3 0  9997", "line2": "2 30845  98.3793 338.2910 0192151 298.3652 215.1904 13.76844808941028"}}, "geometry": {"type": "Point", "coordinates": [165.83091164795226, 32.68336604821297]}}, {"type": "Feature", "properties": {"norad_id": 30846, "name": "FENGYUN 1C DEB", "group": "fengyun-1c-debris", "lat": -17.80876858255788, "lon": 154.4223764314041, "alt_km": 721.6048840795311, "timestamp": "2025-12-04T21:36:16.151946+00:00", "meta": {"OBJECT_NAME": "FENGYUN 1C DEB", "OBJECT_ID": "1999-025AWG", "EPOCH": "2025-12-03T10:50:02.904000", "MEAN_MOTION": 14.41463516, "ECCENTRICITY": 0.00542634, "INCLINATION": 99.3207, "RA_OF_ASC_NODE": 149.819, "ARG_OF_PERICENTER": 3.7076, "MEAN_ANOMALY": 24.7244, "EPHEMERIS_TYPE": 0, "CLASSIFICATION_TYPE": "U", "NORAD_CAT_ID": 30846, "ELEMENT_SET_NO": 999, "REV_AT_EPOCH": 97796, "BSTAR": 0.0011326551, "MEAN_MOTION_DOT": 3.69e-05, "MEAN_MOTION_DDOT": 0}, "tle": {"line1": "1 30846U 99025AWG 25337.45142250  .00003690  00000+0  11327-2 0  9992", "line2": "2 30846  99.3207 149.8190 0054263   3.7076  24.7244 14.41463516977964"}}, "geometry": {"type": "Point", "coordinates": [154.4223764314041, -17.80876858255788]}}, {"type": "Feature", "properties": {"norad_id": 30847, "name": "FENGYUN 1C DEB", "group": "fengyun-1c-debris", "lat": 26.121430324152442, "lon": 134.87135943561915, "alt_km": 796.3972340105247, "timestamp": "2025-12-04T21:36:16.151956+00:00", "meta": {"OBJECT_NAME": "FENGYUN 1C DEB", "OBJECT_ID": "1999-025AWH", "EPOCH": "2025-12-04T09:52:19.420896", "MEAN_MOTION": 14.16927713, "ECCENTRICITY": 0.00652883, "INCLINATION": 98.7318, "RA_OF_ASC_NODE": 138.7135, "ARG_OF_PERICENTER": 352.2662, "MEAN_ANOMALY": 61.6453, "EPHEMERIS_TYPE": 0, "CLASSIFICATION_TYPE": "U", "NORAD_CAT_ID": 30847, "ELEMENT_SET_NO": 999, "REV_AT_EPOCH": 95937, "BSTAR": 0.0038560987, "MEAN_MOTION_DOT": 7.866e-05, "MEAN_MOTION_DDOT": 0}, "tle": {"line1": "1 30847U 99025AWH 25338.41133589  .00007866  00000+0  38561-2 0  9993", "line2": "2 30847  98.7318 138.7135 0065288 352.2662  61.6453 14.16927713959372"}}, "geometry": {"type": "Point", "coordinates": [134.87135943561915, 26.121430324152442]}}, {"type": "Feature", "properties": {"norad_id": 30848, "name": "FENGYUN 1C DEB", "group": "fengyun-1c-debris", "lat": -6.063294397248509, "lon": 174.329835871486, "alt_km": 749.246810800707, "timestamp": "2025-12-04T21:36:16.151966+00:00", "meta": {"OBJECT_NAME": "FENGYUN 1C DEB", "OBJECT_ID": "1999-025AWJ", "EPOCH": "2025-12-03T12:09:01.358208", "MEAN_MOTION": 14.34385338, "ECCENTRICITY": 0.0044139, "INCLINATION": 99.0608, "RA_OF_ASC_NODE": 171.8981, "ARG_OF_PERICENTER": 2.3461, "MEAN_ANOMALY": 357.7922, "EPHEMERIS_TYPE": 0, "CLASSIFICATION_TYPE": "U", "NORAD_CAT_ID": 30848, "ELEMENT_SET_NO": 999, "REV_AT_EPOCH": 97174, "BSTAR": 0.0016780739, "MEAN_MOTION_DOT": 4.728e-05, "MEAN_MOTION_DDOT": 0}, "tle": {"line1": "1 30848U 99025AWJ 25337.50626572  .00004728  00000+0  16781-2 0  9996", "line2": "2 30848  99.0608 171.8981 0044139   2.3461 357.7922 14.34385338971744"}}, "geometry": {"type": "Point", "coordinates": [174.329835871486, -6.063294397248509]}}, {"type": "Feature", "properties": {"norad_id": 30849, "name": "FENGYUN 1C DEB", "group": "fengyun-1c-debris", "lat": 51.956369691530526, "lon": -129.50729308984, "alt_km": 829.0823738294548, "timestamp": "2025-12-04T21:36:16.151977+00:00", "meta": {"OBJECT_NAME": "FENGYUN 1C DEB", "OBJECT_ID": "1999-025AWK", "EPOCH": "2025-12-03T10:04:06.299904", "MEAN_MOTION": 14.18776336, "ECCENTRICITY": 0.00484606, "INCLINATION": 99.0493, "RA_OF_ASC_NODE": 37.2311, "ARG_OF_PERICENTER": 33.5653, "MEAN_ANOMALY": 94.4513, "EPHEMERIS_TYPE": 0, "CLASSIFICATION_TYPE": "U", "NORAD_CAT_ID": 30849, "ELEMENT_SET_NO": 999, "REV_AT_EPOCH": 96240, "BSTAR": 0.0018491535, "MEAN_MOTION_DOT": 3.843e-05, "MEAN_MOTION_DDOT": 0}, "tle": {"line1": "1 30849U 99025AWK 25337.41951736  .00003843  00000+0  18492-2 0  9998", "line2": "2 30849  99.0493  37.2311 0048460  33.5653  94.4513 14.18776336962407"}}, "geometry": {"type": "Point", "coordinates": [-129.50729308984, 51.956369691530526]}}, {"type": "Feature", "properties": {"norad_id": 30850, "name": "FENGYUN 1C DEB", "group": "fengyun-1c-debris", "lat": 49.99939822927479, "lon": 34.98025840846595, "alt_km": 835.1798272709102, "timestamp": "2025-12-04T21:36:16.151987+00:00", "meta": {"OBJECT_NAME": "FENGYUN 1C DEB", "OBJECT_ID": "1999-025AWL", "EPOCH": "2025-12-04T03:03:11.339712", "MEAN_MOTION": 14.16178798, "ECCENTRICITY": 0.01098713, "INCLINATION": 98.3946, "RA_OF_ASC_NODE": 204.1159, "ARG_OF_PERICENTER": 223.1462, "MEAN_ANOMALY": 288.7106, "EPHEMERIS_TYPE": 0, "CLASSIFICATION_TYPE": "U", "NORAD_CAT_ID": 30850, "ELEMENT_SET_NO": 999, "REV_AT_EPOCH": 95676, "BSTAR": 0.0042872734, "MEAN_MOTION_DOT": 8.966e-05, "MEAN_MOTION_DDOT": 0}, "tle": {"line1": "1 30850U 99025AWL 25338.12721458  .00008966  00000+0  42873-2 0  9996", "line2": "2 30850  98.3946 204.1159 0109871 223.1462 288.7106 14.16178798956762"}}, "geometry": {"type": "Point", "coordinates": [34.98025840846595, 49.99939822927479]}}, {"type": "Feature", "properties": {"norad_id": 30852, "name": "FENGYUN 1C DEB", "group": "fengyun-1c-debris", "lat": -74.12928586695841, "lon": 29.60969887007337, "alt_km": 829.5796205709103, "timestamp": "2025-12-04T21:36:16.151996+00:00", "meta": {"OBJECT_NAME": "FENGYUN 1C DEB", "OBJECT_ID": "1999-025AWN", "EPOCH": "2025-12-03T11:54:38.783808", "MEAN_MOTION": 14.10259193, "ECCENTRICITY": 0.00556181, "INCLINATION": 98.7343, "RA_OF_ASC_NODE": 355.5132, "ARG_OF_PERICENTER": 261.1664, "MEAN_ANOMALY": 98.3207, "EPHEMERIS_TYPE": 0, "CLASSIFICATION_TYPE": "U", "NORAD_CAT_ID": 30852, "ELEMENT_SET_NO": 999, "REV_AT_EPOCH": 96252, "BSTAR": 0.00068709601, "MEAN_MOTION_DOT": 1.192e-05, "MEAN_MOTION_DDOT": 0}, "tle": {"line1": "1 30852U 99025AWN 25337.49628222  .00001192  00000+0  68710-3 0  9995", "line2": "2 30852  98.7343 355.5132 0055618 261.1664  98.3207 14.10259193962527"}}, "geometry": {"type": "Point", "coordinates": [29.60969887007337, -74.12928586695841]}}, {"type": "Feature", "properties": {"norad_id": 30856, "name": "FENGYUN 1C DEB", "group": "fengyun-1c-debris", "lat": 30.808405735785414, "lon": -11.12308710894008, "alt_km": 763.4129664593002, "timestamp": "2025-12-04T21:36:16.152006+00:00", "meta": {"OBJECT_NAME": "FENGYUN 1C DEB", "OBJECT_ID": "1999-025AWS", "EPOCH": "2025-12-03T11:48:50.114880", "MEAN_MOTION": 14.45605861, "ECCENTRICITY": 0.00897975, "INCLINATION": 98.1996, "RA_OF_ASC_NODE": 162.5837, "ARG_OF_PERICENTER": 266.8034, "MEAN_ANOMALY": 119.823, "EPHEMERIS_TYPE": 0, "CLASSIFICATION_TYPE": "U", "NORAD_CAT_ID": 30856, "ELEMENT_SET_NO": 999, "REV_AT_EPOCH": 96392, "BSTAR": 0.0065275145, "MEAN_MOTION_DOT": 0.00024274, "MEAN_MOTION_DDOT": 0}, "tle": {"line1": "1 30856U 99025AWS 25337.49224670  .00024274  00000+0  65275-2 0  9996", "line2": "2 30856  98.1996 162.5837 0089797 266.8034 119.8230 14.45605861963920"}}, "geometry": {"type": "Point", "coordinates": [-11.12308710894008, 30.808405735785414]}}, {"type": "Feature", "properties": {"norad_id": 30857, "name": "FENGYUN 1C DEB", "group": "fengyun-1c-debris", "lat": -10.672401862932809, "lon": 146.43299435379024, "alt_km": 745.7280243526575, "timestamp": "2025-12-04T21:36:16.152017+00:00", "meta": {"OBJECT_NAME": "FENGYUN 1C DEB", "OBJECT_ID": "1999-025AWT", "EPOCH": "2025-11-30T10:47:49.835040", "MEAN_MOTION": 14.5075264, "ECCENTRICITY": 0.0044105, "INCLINATION": 98.9754, "RA_OF_ASC_NODE": 323.3958, "ARG_OF_PERICENTER": 331.9164, "MEAN_ANOMALY": 27.965, "EPHEMERIS_TYPE": 0, "CLASSIFICATION_TYPE": "U", "NORAD_CAT_ID": 30857, "ELEMENT_SET_NO": 999, "REV_AT_EPOCH": 96545, "BSTAR": 0.0067744434, "MEAN_MOTION_DOT": 0.00027044, "MEAN_MOTION_DDOT": 0}, "tle": {"line1": "1 30857U 99025AWT 25334.44988235  .00027044  00000+0  67744-2 0  9994", "line2": "2 30857  98.9754 323.3958 0044105 331.9164  27.9650 14.50752640965453"}}, "geometry": {"type": "Point", "coordinates": [146.43299435379024, -10.672401862932809]}}]}